CELESTIS-17 & SHERPA-FX1
1 47486U 21006CB  26068.64311433  .00007207  00000+0  24301-3 0  9993
2 47486  97.2397 112.1052 0006630 178.1385 181.9882 15.30994801284065
STARLINK-34795          
1 65684U 25212J   26068.04206618  .00069873  00000+0  23509-2 0  9993
2 65684  53.1612 348.7369 0001079  66.5692 293.5422 15.30176161 27096
